[{"OBJECT_NAME":"ONEWEB-0615","OBJECT_ID":"2022-166AL","EPOCH":"2026-03-02T01:33:58.512384","MEAN_MOTION":13.21825757,"ECCENTRICITY":0.0001582,"INCLINATION":87.9168,"RA_OF_ASC_NODE":265.3523,"ARG_OF_PERICENTER":89.1473,"MEAN_ANOMALY":270.9843,"EPHEMERIS_TYPE":0,"CLASSIFICATION_TYPE":"U","NORAD_CAT_ID":54676,"ELEMENT_SET_NO":999,"REV_AT_EPOCH":15729,"BSTAR":0.00020177,"MEAN_MOTION_DOT":9.6e-7,"MEAN_MOTION_DDOT":0},{"OBJECT_NAME":"ONEWEB-0655","OBJECT_ID":"2022-166AM","EPOCH":"2026-03-02T02:47:26.032992","MEAN_MOTION":13.21825509,"ECCENTRICITY":0.0001348,"INCLINATION":87.9168,"RA_OF_ASC_NODE":265.3439,"ARG_OF_PERICENTER":95.5342,"MEAN_ANOMALY":264.5945,"EPHEMERIS_TYPE":0,"CLASSIFICATION_TYPE":"U","NORAD_CAT_ID":54677,"ELEMENT_SET_NO":999,"REV_AT_EPOCH":15729,"BSTAR":0.00022152,"MEAN_MOTION_DOT":1.05e-6,"MEAN_MOTION_DDOT":0},{"OBJECT_NAME":"ONEWEB-0659","OBJECT_ID":"2022-166AN","EPOCH":"2026-03-02T01:22:07.078368","MEAN_MOTION":13.21826602,"ECCENTRICITY":0.00017,"INCLINATION":87.9166,"RA_OF_ASC_NODE":265.3565,"ARG_OF_PERICENTER":89.2052,"MEAN_ANOMALY":270.9277,"EPHEMERIS_TYPE":0,"CLASSIFICATION_TYPE":"U","NORAD_CAT_ID":54678,"ELEMENT_SET_NO":999,"REV_AT_EPOCH":15737,"BSTAR":0.00016896,"MEAN_MOTION_DOT":8.3e-7,"MEAN_MOTION_DDOT":0},{"OBJECT_NAME":"ONEWEB-0685","OBJECT_ID":"2022-166AP","EPOCH":"2026-03-02T01:22:35.308704","MEAN_MOTION":13.21812113,"ECCENTRICITY":0.0001409,"INCLINATION":87.9163,"RA_OF_ASC_NODE":265.352,"ARG_OF_PERICENTER":88.7889,"MEAN_ANOMALY":271.3407,"EPHEMERIS_TYPE":0,"CLASSIFICATION_TYPE":"U","NORAD_CAT_ID":54679,"ELEMENT_SET_NO":999,"REV_AT_EPOCH":15726,"BSTAR":0.00024151,"MEAN_MOTION_DOT":1.13e-6,"MEAN_MOTION_DDOT":0},{"OBJECT_NAME":"ONEWEB-0712","OBJECT_ID":"2022-166AQ","EPOCH":"2026-03-02T01:21:03.932064","MEAN_MOTION":13.16593493,"ECCENTRICITY":0.0001351,"INCLINATION":87.9003,"RA_OF_ASC_NODE":250.0857,"ARG_OF_PERICENTER":112.113,"MEAN_ANOMALY":248.0144,"EPHEMERIS_TYPE":0,"CLASSIFICATION_TYPE":"U","NORAD_CAT_ID":54680,"ELEMENT_SET_NO":999,"REV_AT_EPOCH":15796,"BSTAR":0.00019678,"MEAN_MOTION_DOT":8.8e-7,"MEAN_MOTION_DDOT":0},{"OBJECT_NAME":"ONEWEB-0714","OBJECT_ID":"2022-166AR","EPOCH":"2026-03-02T01:31:34.660704","MEAN_MOTION":13.21826954,"ECCENTRICITY":0.0001398,"INCLINATION":87.9166,"RA_OF_ASC_NODE":265.3454,"ARG_OF_PERICENTER":91.41,"MEAN_ANOMALY":268.7194,"EPHEMERIS_TYPE":0,"CLASSIFICATION_TYPE":"U","NORAD_CAT_ID":54681,"ELEMENT_SET_NO":999,"REV_AT_EPOCH":15738,"BSTAR":0.00026414,"MEAN_MOTION_DOT":1.22e-6,"MEAN_MOTION_DDOT":0},{"OBJECT_NAME":"ONEWEB-0532","OBJECT_ID":"2023-004A","EPOCH":"2026-03-02T04:35:16.258560","MEAN_MOTION":13.17649211,"ECCENTRICITY":0.0002051,"INCLINATION":87.9146,"RA_OF_ASC_NODE":27.1105,"ARG_OF_PERICENTER":72.2273,"MEAN_ANOMALY":287.9082,"EPHEMERIS_TYPE":0,"CLASSIFICATION_TYPE":"U","NORAD_CAT_ID":55140,"ELEMENT_SET_NO":999,"REV_AT_EPOCH":15349,"BSTAR":-7.3249e-5,"MEAN_MOTION_DOT":-1.6e-7,"MEAN_MOTION_DDOT":0},{"OBJECT_NAME":"ONEWEB-0533","OBJECT_ID":"2023-004B","EPOCH":"2026-03-01T21:16:56.458848","MEAN_MOTION":13.12441733,"ECCENTRICITY":0.0001665,"INCLINATION":87.8996,"RA_OF_ASC_NODE":11.9618,"ARG_OF_PERICENTER":77.5969,"MEAN_ANOMALY":282.5345,"EPHEMERIS_TYPE":0,"CLASSIFICATION_TYPE":"U","NORAD_CAT_ID":55141,"ELEMENT_SET_NO":999,"REV_AT_EPOCH":15398,"BSTAR":-0.0012153,"MEAN_MOTION_DOT":-4.24e-6,"MEAN_MOTION_DDOT":0},{"OBJECT_NAME":"ONEWEB-0541","OBJECT_ID":"2023-004C","EPOCH":"2026-03-01T23:38:52.957824","MEAN_MOTION":13.11417712,"ECCENTRICITY":0.0002002,"INCLINATION":87.8854,"RA_OF_ASC_NODE":42.3679,"ARG_OF_PERICENTER":83.8267,"MEAN_ANOMALY":276.3089,"EPHEMERIS_TYPE":0,"CLASSIFICATION_TYPE":"U","NORAD_CAT_ID":55142,"ELEMENT_SET_NO":999,"REV_AT_EPOCH":15189,"BSTAR":-0.00077724,"MEAN_MOTION_DOT":-2.63e-6,"MEAN_MOTION_DDOT":0},{"OBJECT_NAME":"ONEWEB-0543","OBJECT_ID":"2023-004D","EPOCH":"2026-03-02T02:27:00.880992","MEAN_MOTION":13.18685752,"ECCENTRICITY":0.0001684,"INCLINATION":87.9228,"RA_OF_ASC_NODE":356.7453,"ARG_OF_PERICENTER":88.3154,"MEAN_ANOMALY":271.8171,"EPHEMERIS_TYPE":0,"CLASSIFICATION_TYPE":"U","NORAD_CAT_ID":55143,"ELEMENT_SET_NO":999,"REV_AT_EPOCH":15558,"BSTAR":8.049e-5,"MEAN_MOTION_DOT":4.5e-7,"MEAN_MOTION_DDOT":0},{"OBJECT_NAME":"ONEWEB-0544","OBJECT_ID":"2023-004E","EPOCH":"2026-03-02T02:17:30.650496","MEAN_MOTION":13.18686429,"ECCENTRICITY":0.0002008,"INCLINATION":87.9237,"RA_OF_ASC_NODE":356.7426,"ARG_OF_PERICENTER":85.4133,"MEAN_ANOMALY":274.7229,"EPHEMERIS_TYPE":0,"CLASSIFICATION_TYPE":"U","NORAD_CAT_ID":55144,"ELEMENT_SET_NO":999,"REV_AT_EPOCH":15558,"BSTAR":0.00032806,"MEAN_MOTION_DOT":1.42e-6,"MEAN_MOTION_DDOT":0},{"OBJECT_NAME":"ONEWEB-0560","OBJECT_ID":"2023-004F","EPOCH":"2026-03-02T02:08:00.590208","MEAN_MOTION":13.18685668,"ECCENTRICITY":0.0001946,"INCLINATION":87.9237,"RA_OF_ASC_NODE":356.7338,"ARG_OF_PERICENTER":85.9321,"MEAN_ANOMALY":274.2033,"EPHEMERIS_TYPE":0,"CLASSIFICATION_TYPE":"U","NORAD_CAT_ID":55145,"ELEMENT_SET_NO":999,"REV_AT_EPOCH":15559,"BSTAR":-7.6997e-5,"MEAN_MOTION_DOT":-1.7e-7,"MEAN_MOTION_DDOT":0},{"OBJECT_NAME":"ONEWEB-0565","OBJECT_ID":"2023-004G","EPOCH":"2026-03-02T01:58:30.530784","MEAN_MOTION":13.18685625,"ECCENTRICITY":0.0002325,"INCLINATION":87.9227,"RA_OF_ASC_NODE":356.7732,"ARG_OF_PERICENTER":81.2552,"MEAN_ANOMALY":278.8843,"EPHEMERIS_TYPE":0,"CLASSIFICATION_TYPE":"U","NORAD_CAT_ID":55146,"ELEMENT_SET_NO":999,"REV_AT_EPOCH":15558,"BSTAR":0.00019109,"MEAN_MOTION_DOT":8.8e-7,"MEAN_MOTION_DDOT":0},{"OBJECT_NAME":"ONEWEB-0567","OBJECT_ID":"2023-004H","EPOCH":"2026-03-02T01:49:00.486912","MEAN_MOTION":13.18686129,"ECCENTRICITY":0.0002201,"INCLINATION":87.9237,"RA_OF_ASC_NODE":356.7481,"ARG_OF_PERICENTER":84.8057,"MEAN_ANOMALY":275.3327,"EPHEMERIS_TYPE":0,"CLASSIFICATION_TYPE":"U","NORAD_CAT_ID":55147,"ELEMENT_SET_NO":999,"REV_AT_EPOCH":15558,"BSTAR":0.00015102,"MEAN_MOTION_DOT":7.2e-7,"MEAN_MOTION_DDOT":0},{"OBJECT_NAME":"ONEWEB-0569","OBJECT_ID":"2023-004J","EPOCH":"2026-03-02T01:18:53.799840","MEAN_MOTION":13.13469739,"ECCENTRICITY":0.000236,"INCLINATION":87.9051,"RA_OF_ASC_NODE":341.518,"ARG_OF_PERICENTER":100.1844,"MEAN_ANOMALY":259.9551,"EPHEMERIS_TYPE":0,"CLASSIFICATION_TYPE":"U","NORAD_CAT_ID":55148,"ELEMENT_SET_NO":999,"REV_AT_EPOCH":15611,"BSTAR":0.00016847,"MEAN_MOTION_DOT":7.4e-7,"MEAN_MOTION_DDOT":0},{"OBJECT_NAME":"ONEWEB-0570","OBJECT_ID":"2023-004K","EPOCH":"2026-03-02T01:34:45.063840","MEAN_MOTION":13.18686963,"ECCENTRICITY":0.0002202,"INCLINATION":87.9239,"RA_OF_ASC_NODE":356.7483,"ARG_OF_PERICENTER":69.9036,"MEAN_ANOMALY":290.2333,"EPHEMERIS_TYPE":0,"CLASSIFICATION_TYPE":"U","NORAD_CAT_ID":55149,"ELEMENT_SET_NO":999,"REV_AT_EPOCH":15557,"BSTAR":5.2747e-5,"MEAN_MOTION_DOT":3.4e-7,"MEAN_MOTION_DDOT":0},{"OBJECT_NAME":"ONEWEB-0571","OBJECT_ID":"2023-004L","EPOCH":"2026-03-02T01:25:14.278656","MEAN_MOTION":13.18695321,"ECCENTRICITY":0.0002989,"INCLINATION":87.9244,"RA_OF_ASC_NODE":356.7487,"ARG_OF_PERICENTER":89.6312,"MEAN_ANOMALY":270.5163,"EPHEMERIS_TYPE":0,"CLASSIFICATION_TYPE":"U","NORAD_CAT_ID":55150,"ELEMENT_SET_NO":999,"REV_AT_EPOCH":15558,"BSTAR":0.0028449,"MEAN_MOTION_DOT":1.135e-5,"MEAN_MOTION_DDOT":0}]
