ONEWEB-0615             
1 54676U 22166AL  26061.06526056  .00000096  00000+0  20177-3 0  9994
2 54676  87.9168 265.3523 0001582  89.1473 270.9843 13.21825757157291
ONEWEB-0655             
1 54677U 22166AM  26061.11627353  .00000105  00000+0  22152-3 0  9999
2 54677  87.9168 265.3439 0001348  95.5342 264.5945 13.21825509157291
ONEWEB-0659             
1 54678U 22166AN  26061.05702637  .00000083  00000+0  16896-3 0  9995
2 54678  87.9166 265.3565 0001700  89.2052 270.9277 13.21826602157373
ONEWEB-0685             
1 54679U 22166AP  26061.05735311  .00000113  00000+0  24151-3 0  9998
2 54679  87.9163 265.3520 0001409  88.7889 271.3407 13.21812113157260
ONEWEB-0712             
1 54680U 22166AQ  26061.05629551  .00000088  00000+0  19678-3 0  9997
2 54680  87.9003 250.0857 0001351 112.1130 248.0144 13.16593493157963
ONEWEB-0714             
1 54681U 22166AR  26061.06359561  .00000122  00000+0  26414-3 0  9995
2 54681  87.9166 265.3454 0001398  91.4100 268.7194 13.21826954157380
ONEWEB-0532             
1 55140U 23004A   26061.19116040 -.00000016  00000+0 -73249-4 0  9998
2 55140  87.9146  27.1105 0002051  72.2273 287.9082 13.17649211153492
ONEWEB-0533             
1 55141U 23004B   26060.88676457 -.00000424  00000+0 -12153-2 0  9995
2 55141  87.8996  11.9618 0001665  77.5969 282.5345 13.12441733153986
ONEWEB-0541             
1 55142U 23004C   26060.98533516 -.00000263  00000+0 -77724-3 0  9992
2 55142  87.8854  42.3679 0002002  83.8267 276.3089 13.11417712151895
ONEWEB-0543             
1 55143U 23004D   26061.10209353  .00000045  00000+0  80490-4 0  9998
2 55143  87.9228 356.7453 0001684  88.3154 271.8171 13.18685752155584
ONEWEB-0544             
1 55144U 23004E   26061.09549364  .00000142  00000+0  32806-3 0  9991
2 55144  87.9237 356.7426 0002008  85.4133 274.7229 13.18686429155589
ONEWEB-0560             
1 55145U 23004F   26061.08889572 -.00000017  00000+0 -76997-4 0  9992
2 55145  87.9237 356.7338 0001946  85.9321 274.2033 13.18685668155599
ONEWEB-0565             
1 55146U 23004G   26061.08229781  .00000088  00000+0  19109-3 0  9990
2 55146  87.9227 356.7732 0002325  81.2552 278.8843 13.18685625155585
ONEWEB-0567             
1 55147U 23004H   26061.07570008  .00000072  00000+0  15102-3 0  9993
2 55147  87.9237 356.7481 0002201  84.8057 275.3327 13.18686129155589
ONEWEB-0569             
1 55148U 23004J   26061.05478935  .00000074  00000+0  16847-3 0  9997
2 55148  87.9051 341.5180 0002360 100.1844 259.9551 13.13469739156112
ONEWEB-0570             
1 55149U 23004K   26061.06579935  .00000034  00000+0  52747-4 0  9997
2 55149  87.9239 356.7483 0002202  69.9036 290.2333 13.18686963155575
ONEWEB-0571             
1 55150U 23004L   26061.05919304  .00001135  00000+0  28449-2 0  9999
2 55150  87.9244 356.7487 0002989  89.6312 270.5163 13.18695321155586
